ION SCV-004             
1 50993U 22002K   26068.68892644  .00006538  00000+0  23198-3 0  9998
2 50993  97.2961 128.2294 0007216   1.6783 358.4480 15.29369331230088
STARLINK-35452          
1 66104U 25236U   26068.36904450  .00009763  00000+0  34144-3 0  9991
2 66104  53.1590 105.4911 0001335  87.3218 272.7936 15.30188556 22893
